STARLINK-6047           
1 56460U 23064N   26068.59743414  .00004451  00000+0  38024-3 0  9998
2 56460  70.0007 144.6354 0002750 267.1203  92.9641 14.98369007155233
BRO-15                  
1 60553U 24149CP  26068.78650368  .00000816  00000+0  78021-4 0  9990
2 60553  97.6864 146.0377 0009320  65.4416 294.7775 14.95892184 85149
